MALLIGYONG-1            
1 58400U 23179A   24195.95348570  .00007614  00000+0  34212-3 0  9993
2 58400  97.4004  82.3480 0003722  98.3067 261.8591 15.21417605 35793
